LEMUR-2-ROUNDTRIPPER    
1 62711U 25009DG  26165.76482943  .00008549  00000+0  62668-3 0  9992
2 62711  97.7261 248.4470 0005088 138.1829 221.9786 15.03758400 77263
LEMUR-2-MYNAMEISJEFF    
1 62712U 25009DH  26165.76325007  .00007860  00000+0  57661-3 0  9992
2 62712  97.7308 248.8252 0003303 159.9509 200.1847 15.03766681 77269
LEMUR-2-LEIA-PHILIP     
1 63246U 25052AN  26165.66389889  .00001307  00000+0  11766-3 0  9996
2 63246  97.6845  57.6574 0002316 217.6811 142.4249 14.97314788 68297
LEMUR-2-LIA-MARTIN      
1 63248U 25052AQ  26165.66976155  .00003854  00000+0  33311-3 0  9995
2 63248  97.6911  58.1349 0002754 159.3341 200.7993 14.97789414 68303
LEMUR-2-DELOITTE-1      
1 63259U 25052BB  26165.64581365  .00004195  00000+0  36402-3 0  9993
2 63259  97.6924  58.4396 0003241 102.4513 257.7071 14.97585629 68318
LEMUR-2-EMERSONROSE     
1 63261U 25052BD  26165.62348736  .00003521  00000+0  29493-3 0  9991
2 63261  97.6896  58.9720 0001878  66.5274 293.6146 14.99064737 68353
LEMUR-2-MARACHE-FRAN    
1 63262U 25052BE  26165.66726198  .00005365  00000+0  43506-3 0  9997
2 63262  97.6954  59.3258 0005639  31.8988 328.2576 15.00081022 68380
LEMUR-2-THEFALCONER     
1 63264U 25052BG  26165.67182984  .00002830  00000+0  24853-3 0  9997
2 63264  97.6879  58.0891 0002992  41.4693 318.6755 14.97377020 68312
LEMUR-2-UNTITLED-SC     
1 63351U 25061A   26165.84078123  .00003680  00000+0  20888-3 0  9990
2 63351  97.5630 141.2195 0016914 273.6527  86.2769 15.13461634 67236
LEMUR-2-ESPERANZA       
1 63352U 25061B   26165.48750593  .00004406  00000+0  24872-3 0  9993
2 63352  97.5637 140.9616 0016550 274.2140  85.7200 15.13551781 67183
LEMUR-2-KREMPEL-BRO2    
1 63353U 25061C   26165.71353488  .00003692  00000+0  20641-3 0  9998
2 63353  97.5685 141.7164 0017408 265.0704  94.8540 15.13990453 67238
LEMUR-2-THERMORAPTOR    
1 63354U 25061D   26165.82791104  .00004276  00000+0  23798-3 0  9997
2 63354  97.5690 141.9053 0017180 263.4769  96.4507 15.14069998 67259
LEMUR-2-NEUROSPICY      
1 63355U 25061E   26165.86584918  .00004332  00000+0  24045-3 0  9994
2 63355  97.5619 141.5710 0015014 267.3430  92.6083 15.14186765 67269
LEMUR-2-TILLINFINITY    
1 63356U 25061F   26165.83594833  .00003970  00000+0  21700-3 0  9991
2 63356  97.5600 141.8300 0016260 254.0510 105.8930 15.14770882 67283
LEMUR-2-KREMPEL-BRO1    
1 63357U 25061G   26165.87518611  .00004629  00000+0  25368-3 0  9992
2 63357  97.5604 141.7859 0016931 255.3341 104.6014 15.14577923 67288
LEMUR-2-LANGER2SPACE    
1 63358U 25061H   26165.83514794  .00003964  00000+0  21983-3 0  9997
2 63358  97.5607 141.5609 0014870 265.5137  94.4396 15.14273372 67267
LEMUR-2-BALTO           
1 63395U 25052BH  26165.65192117  .00005640  00000+0  45726-3 0  9993
2 63395  97.6898  59.2905 0006898  64.5570 295.6367 15.00062477 68388
LEMUR-2-KRISH           
1 64561U 25135AK  26165.86739544  .00005447  00000+0  48829-3 0  9997
2 64561  97.7744 280.7592 0001715 102.7566 257.3846 14.96188921 53570
LEMUR-2-HUBBLE-4        
1 64565U 25135AP  26165.85797481  .00001590  00000+0  15765-3 0  9992
2 64565  97.7697 279.7923 0001080 323.6013  36.5133 14.93191436 53526
LEMUR-2-SEJONG-2        
1 64586U 25135BL  26165.83127061  .00003599  00000+0  32038-3 0  9997
2 64586  97.7690 280.8683 0004044 349.5998  10.5139 14.96681954 53597
LEMUR-2-HUBBLE-5        
1 64840U 25135BT  26165.81350542  .00001456  00000+0  14151-3 0  9996
2 64840  97.7716 280.3783 0005282   2.7724 357.3525 14.94130414 53550
LEMUR-2-KARENDARRELL    
1 64841U 25135BU  26165.85024228  .00007338  00000+0  59289-3 0  9996
2 64841  97.7679 282.0619 0009513 211.1749 148.8911 15.00082338 53663
LEMUR-2-LUCILLE-ROSE    
1 65403U 25135BV  26165.55721797  .00006370  00000+0  51465-3 0  9996
2 65403  97.7771 281.7859 0010956 292.9349  67.0717 15.00126663 48243
LEMUR-2-AFFIE-WAUWIE    
1 66295U 25248C   26165.17737354  .00015219  00000+0  57239-3 0  9992
2 66295  45.3886 131.2928 0007744  63.5131 296.6551 15.27058848 34134
LEMUR-2-DEANANDMAEVE    
1 66678U 25276N   26165.48340296  .00006916  00000+0  32685-3 0  9999
2 66678  97.4218 239.0035 0005987  23.7664 336.3846 15.19704263 30009
LEMUR-2-STAS-GORBUK     
1 66686U 25276W   26165.76072223  .00005578  00000+0  26695-3 0  9998
2 66686  97.4253 239.3315 0005293  23.0681 337.0790 15.19358487 30046
LEMUR-2-TEODOR          
1 66768U 25276DG  26165.15507771  .00006517  00000+0  29674-3 0  9997
2 66768  97.4157 238.9683 0002057 118.6510 241.4933 15.21021305 29987
LEMUR-2-LAILA           
1 66776U 25276DQ  26165.45832136  .00005510  00000+0  24977-3 0  9998
2 66776  97.4180 239.3859 0002056 139.5835 220.5554 15.21245498 30039
LEMUR-2-CELIJO-SB-PK    
1 66781U 25276DW  26165.43487486  .00007346  00000+0  59531-3 0  9999
2 66781  97.5269 236.3017 0008979 139.4950 220.6944 14.99952426 22219
LEMUR-2-FINNIAN         
1 66782U 25276DX  26165.87943992  .00006500  00000+0  52192-3 0  9994
2 66782  97.5284 236.9439 0008852  96.2612 263.9620 15.00352804 19658
