OBJECT_NAME,OBJECT_ID,EPOCH,MEAN_MOTION,ECCENTRICITY,INCLINATION,RA_OF_ASC_NODE,ARG_OF_PERICENTER,MEAN_ANOMALY,EPHEMERIS_TYPE,CLASSIFICATION_TYPE,NORAD_CAT_ID,ELEMENT_SET_NO,REV_AT_EPOCH,BSTAR,MEAN_MOTION_DOT,MEAN_MOTION_DDOT
LEMUR-2-ROUNDTRIPPER,2025-009DG,2026-06-14T18:21:21.262752,15.03758400,.0005088,97.7261,248.4470,138.1829,221.9786,0,U,62711,999,7726,.62668E-3,.8549E-4,0
LEMUR-2-MYNAMEISJEFF,2025-009DH,2026-06-14T18:19:04.806048,15.03766681,.0003303,97.7308,248.8252,159.9509,200.1847,0,U,62712,999,7726,.57661E-3,.786E-4,0
LEMUR-2-LEIA-PHILIP,2025-052AN,2026-06-14T15:56:00.864096,14.97314788,.0002316,97.6845,57.6574,217.6811,142.4249,0,U,63246,999,6829,.11766E-3,.1307E-4,0
LEMUR-2-LIA-MARTIN,2025-052AQ,2026-06-14T16:04:27.397920,14.97789414,.0002754,97.6911,58.1349,159.3341,200.7993,0,U,63248,999,6830,.33311E-3,.3854E-4,0
LEMUR-2-DELOITTE-1,2025-052BB,2026-06-14T15:29:58.299360,14.97585629,.0003241,97.6924,58.4396,102.4513,257.7071,0,U,63259,999,6831,.36402E-3,.4195E-4,0
LEMUR-2-EMERSONROSE,2025-052BD,2026-06-14T14:57:49.307904,14.99064737,.0001878,97.6896,58.9720,66.5274,293.6146,0,U,63261,999,6835,.29493E-3,.3521E-4,0
LEMUR-2-MARACHE-FRAN,2025-052BE,2026-06-14T16:00:51.435072,15.00081022,.0005639,97.6954,59.3258,31.8988,328.2576,0,U,63262,999,6838,.43506E-3,.5365E-4,0
LEMUR-2-THEFALCONER,2025-052BG,2026-06-14T16:07:26.098176,14.97377020,.0002992,97.6879,58.0891,41.4693,318.6755,0,U,63264,999,6831,.24853E-3,.283E-4,0
LEMUR-2-UNTITLED-SC,2025-061A,2026-06-14T20:10:43.498272,15.13461634,.0016914,97.5630,141.2195,273.6527,86.2769,0,U,63351,999,6723,.20888E-3,.368E-4,0
LEMUR-2-ESPERANZA,2025-061B,2026-06-14T11:42:00.512352,15.13551781,.00165509,97.5637,140.9616,274.2140,85.7200,0,U,63352,999,6718,.24871842E-3,.4406E-4,0
LEMUR-2-KREMPEL-BRO2,2025-061C,2026-06-14T17:07:29.413632,15.13990453,.0017408,97.5685,141.7164,265.0704,94.8540,0,U,63353,999,6723,.20641E-3,.3692E-4,0
LEMUR-2-THERMORAPTOR,2025-061D,2026-06-14T19:52:11.513856,15.14069998,.001718,97.5690,141.9053,263.4769,96.4507,0,U,63354,999,6725,.23798E-3,.4276E-4,0
LEMUR-2-NEUROSPICY,2025-061E,2026-06-14T20:46:49.369152,15.14186765,.0015014,97.5619,141.5710,267.3430,92.6083,0,U,63355,999,6726,.24045E-3,.4332E-4,0
LEMUR-2-TILLINFINITY,2025-061F,2026-06-14T20:03:45.935712,15.14770882,.001626,97.5600,141.8300,254.0510,105.8930,0,U,63356,999,6728,.217E-3,.397E-4,0
LEMUR-2-KREMPEL-BRO1,2025-061G,2026-06-14T21:00:16.079904,15.14577923,.0016931,97.5604,141.7859,255.3341,104.6014,0,U,63357,999,6728,.25368E-3,.4629E-4,0
LEMUR-2-LANGER2SPACE,2025-061H,2026-06-14T20:02:36.782016,15.14273372,.001487,97.5607,141.5609,265.5137,94.4396,0,U,63358,999,6726,.21983E-3,.3964E-4,0
LEMUR-2-BALTO,2025-052BH,2026-06-14T15:38:45.989088,15.00062477,.0006898,97.6898,59.2905,64.5570,295.6367,0,U,63395,999,6838,.45726E-3,.564E-4,0
LEMUR-2-KRISH,2025-135AK,2026-06-14T20:49:02.966016,14.96188921,.0001715,97.7744,280.7592,102.7566,257.3846,0,U,64561,999,5357,.48829E-3,.5447E-4,0
LEMUR-2-HUBBLE-4,2025-135AP,2026-06-14T20:35:29.023584,14.93191436,.000108,97.7697,279.7923,323.6013,36.5133,0,U,64565,999,5352,.15765E-3,.159E-4,0
LEMUR-2-SEJONG-2,2025-135BL,2026-06-14T19:57:01.780704,14.96681954,.0004044,97.7690,280.8683,349.5998,10.5139,0,U,64586,999,5359,.32038E-3,.3599E-4,0
LEMUR-2-HUBBLE-5,2025-135BT,2026-06-14T19:31:26.868288,14.94130414,.0005282,97.7716,280.3783,2.7724,357.3525,0,U,64840,999,5355,.14151E-3,.1456E-4,0
LEMUR-2-KARENDARRELL,2025-135BU,2026-06-14T20:24:20.932992,15.00082338,.0009513,97.7679,282.0619,211.1749,148.8911,0,U,64841,999,5366,.59289E-3,.7338E-4,0
LEMUR-2-LUCILLE-ROSE,2025-135BV,2026-06-14T13:22:23.632608,15.00126663,.00109568,97.7771,281.7859,292.9349,67.0717,0,U,65403,999,4824,.51464518E-3,.637E-4,0
LEMUR-2-AFFIE-WAUWIE,2025-248C,2026-06-14T04:15:25.073856,15.27058848,.00077441,45.3886,131.2928,63.5131,296.6551,0,U,66295,999,3413,.57239362E-3,.15219E-3,0
LEMUR-2-DEANANDMAEVE,2025-276N,2026-06-14T11:36:06.015744,15.19704263,.00059879,97.4218,239.0035,23.7664,336.3846,0,U,66678,999,3000,.32684797E-3,.6916E-4,0
LEMUR-2-STAS-GORBUK,2025-276W,2026-06-14T18:15:26.400672,15.19358487,.0005293,97.4253,239.3315,23.0681,337.0790,0,U,66686,999,3004,.26695E-3,.5578E-4,0
LEMUR-2-TEODOR,2025-276DG,2026-06-14T03:43:18.714144,15.21021305,.00020577,97.4157,238.9683,118.6510,241.4933,0,U,66768,999,2998,.2967368E-3,.6517E-4,0
LEMUR-2-LAILA,2025-276DQ,2026-06-14T10:59:58.965504,15.21245498,.00020569,97.4180,239.3859,139.5835,220.5554,0,U,66776,999,3003,.24976913E-3,.551E-4,0
LEMUR-2-CELIJO-SB-PK,2025-276DW,2026-06-14T10:26:13.187904,14.99952426,.0008979,97.5269,236.3017,139.4950,220.6944,0,U,66781,999,2221,.59531049E-3,.7346E-4,0
LEMUR-2-FINNIAN,2025-276DX,2026-06-14T21:06:23.609088,15.00352804,.0008852,97.5284,236.9439,96.2612,263.9620,0,U,66782,999,1965,.52192E-3,.65E-4,0
